{
  "type": "FeatureCollection",
  "features": [
    {
      "type": "Feature",
      "properties": {
        "norad_id": 34070,
        "name": "COSMOS 2251 DEB",
        "group": "cosmos-2251-debris",
        "lat": -10.192603272943845,
        "lon": -44.90524199522976,
        "alt_km": 636.4777699145843,
        "timestamp": "2025-12-04T15:47:54.492799+00:00",
        "meta_object_name": "COSMOS 2251 DEB",
        "meta_object_id": "1993-036KH",
        "meta_epoch": "2025-12-04T04:21:14.014080",
        "meta_mean_motion": 14.76522442,
        "meta_eccentricity": 0.00191882,
        "meta_inclination": 73.9996,
        "meta_ra_of_asc_node": 133.0733,
        "meta_arg_of_pericenter": 247.2404,
        "meta_mean_anomaly": 289.7274,
        "meta_ephemeris_type": 0,
        "meta_classification_type": "U",
        "meta_norad_cat_id": 34070,
        "meta_element_set_no": 999,
        "meta_rev_at_epoch": 88484,
        "meta_bstar": 0.0058264901,
        "meta_mean_motion_dot": 0.00040953,
        "meta_mean_motion_ddot": 0,
        "tle_line1": "1 34070U 93036KH  25338.18141220  .00040953  00000+0  58265-2 0  9993",
        "tle_line2": "2 34070  73.9996 133.0733 0019188 247.2404 289.7274 14.76522442884847"
      },
      "geometry": {
        "type": "Point",
        "coordinates": [
          -44.90524199522976,
          -10.192603272943845
        ]
      }
    },
    {
      "type": "Feature",
      "properties": {
        "norad_id": 34114,
        "name": "COSMOS 2251 DEB",
        "group": "cosmos-2251-debris",
        "lat": -73.4113976596211,
        "lon": -14.464866177490979,
        "alt_km": 738.9647971453232,
        "timestamp": "2025-12-04T15:47:54.492809+00:00",
        "meta_object_name": "COSMOS 2251 DEB",
        "meta_object_id": "1993-036KK",
        "meta_epoch": "2025-12-04T06:37:32.295072",
        "meta_mean_motion": 14.56186134,
        "meta_eccentricity": 0.00473367,
        "meta_inclination": 74.0608,
        "meta_ra_of_asc_node": 59.865,
        "meta_arg_of_pericenter": 57.9549,
        "meta_mean_anomaly": 14.2167,
        "meta_ephemeris_type": 0,
        "meta_classification_type": "U",
        "meta_norad_cat_id": 34114,
        "meta_element_set_no": 999,
        "meta_rev_at_epoch": 87678,
        "meta_bstar": 0.0047658175,
        "meta_mean_motion_dot": 0.00021416,
        "meta_mean_motion_ddot": 0,
        "tle_line1": "1 34114U 93036KK  25338.27606823  .00021416  00000+0  47658-2 0  9994",
        "tle_line2": "2 34114  74.0608  59.8650 0047336  57.9549  14.2167 14.56186134876781"
      },
      "geometry": {
        "type": "Point",
        "coordinates": [
          -14.464866177490979,
          -73.4113976596211
        ]
      }
    },
    {
      "type": "Feature",
      "properties": {
        "norad_id": 34115,
        "name": "COSMOS 2251 DEB",
        "group": "cosmos-2251-debris",
        "lat": 69.06577297649802,
        "lon": -53.56362030197782,
        "alt_km": 604.875305462786,
        "timestamp": "2025-12-04T15:47:54.492820+00:00",
        "meta_object_name": "COSMOS 2251 DEB",
        "meta_object_id": "1993-036KL",
        "meta_epoch": "2025-12-04T04:05:39.870240",
        "meta_mean_motion": 14.79269175,
        "meta_eccentricity": 0.00282589,
        "meta_inclination": 74.0077,
        "meta_ra_of_asc_node": 258.8334,
        "meta_arg_of_pericenter": 84.9445,
        "meta_mean_anomaly": 275.4955,
        "meta_ephemeris_type": 0,
        "meta_classification_type": "U",
        "meta_norad_cat_id": 34115,
        "meta_element_set_no": 999,
        "meta_rev_at_epoch": 89285,
        "meta_bstar": 0.0024436174,
        "meta_mean_motion_dot": 0.00018309,
        "meta_mean_motion_ddot": 0,
        "tle_line1": "1 34115U 93036KL  25338.17060035  .00018309  00000+0  24436-2 0  9999",
        "tle_line2": "2 34115  74.0077 258.8334 0028258  84.9445 275.4955 14.79269175892853"
      },
      "geometry": {
        "type": "Point",
        "coordinates": [
          -53.56362030197782,
          69.06577297649802
        ]
      }
    },
    {
      "type": "Feature",
      "properties": {
        "norad_id": 34116,
        "name": "COSMOS 2251 DEB",
        "group": "cosmos-2251-debris",
        "lat": 73.9690180352395,
        "lon": -77.14462535379128,
        "alt_km": 717.4150512068054,
        "timestamp": "2025-12-04T15:47:54.492830+00:00",
        "meta_object_name": "COSMOS 2251 DEB",
        "meta_object_id": "1993-036KM",
        "meta_epoch": "2025-12-04T01:12:20.672928",
        "meta_mean_motion": 14.52898279,
        "meta_eccentricity": 0.00122643,
        "meta_inclination": 74.0407,
        "meta_ra_of_asc_node": 199.1653,
        "meta_arg_of_pericenter": 275.332,
        "meta_mean_anomaly": 234.2622,
        "meta_ephemeris_type": 0,
        "meta_classification_type": "U",
        "meta_norad_cat_id": 34116,
        "meta_element_set_no": 999,
        "meta_rev_at_epoch": 88360,
        "meta_bstar": 0.0014603638,
        "meta_mean_motion_dot": 5.996e-05,
        "meta_mean_motion_ddot": 0,
        "tle_line1": "1 34116U 93036KM  25338.05023927  .00005996  00000+0  14604-2 0  9990",
        "tle_line2": "2 34116  74.0407 199.1653 0012264 275.3320 234.2622 14.52898279883601"
      },
      "geometry": {
        "type": "Point",
        "coordinates": [
          -77.14462535379128,
          73.9690180352395
        ]
      }
    },
    {
      "type": "Feature",
      "properties": {
        "norad_id": 34117,
        "name": "COSMOS 2251 DEB",
        "group": "cosmos-2251-debris",
        "lat": -63.03107631795933,
        "lon": -35.4612512254326,
        "alt_km": 797.4048408213703,
        "timestamp": "2025-12-04T15:47:54.492841+00:00",
        "meta_object_name": "COSMOS 2251 DEB",
        "meta_object_id": "1993-036KN",
        "meta_epoch": "2025-12-04T02:46:32.627424",
        "meta_mean_motion": 14.39958209,
        "meta_eccentricity": 0.00543838,
        "meta_inclination": 74.0403,
        "meta_ra_of_asc_node": 359.7622,
        "meta_arg_of_pericenter": 78.7604,
        "meta_mean_anomaly": 281.9656,
        "meta_ephemeris_type": 0,
        "meta_classification_type": "U",
        "meta_norad_cat_id": 34117,
        "meta_element_set_no": 999,
        "meta_rev_at_epoch": 87999,
        "meta_bstar": 0.00122156,
        "meta_mean_motion_dot": 3.888e-05,
        "meta_mean_motion_ddot": 0,
        "tle_line1": "1 34117U 93036KN  25338.11565541  .00003888  00000+0  12216-2 0  9996",
        "tle_line2": "2 34117  74.0403 359.7622 0054383  78.7604 281.9656 14.39958209879994"
      },
      "geometry": {
        "type": "Point",
        "coordinates": [
          -35.4612512254326,
          -63.03107631795933
        ]
      }
    },
    {
      "type": "Feature",
      "properties": {
        "norad_id": 34118,
        "name": "COSMOS 2251 DEB",
        "group": "cosmos-2251-debris",
        "lat": -58.553952981523764,
        "lon": 113.73041645958291,
        "alt_km": 627.9695774729107,
        "timestamp": "2025-12-04T15:47:54.492851+00:00",
        "meta_object_name": "COSMOS 2251 DEB",
        "meta_object_id": "1993-036KP",
        "meta_epoch": "2025-12-04T05:46:52.560768",
        "meta_mean_motion": 14.93384561,
        "meta_eccentricity": 0.00599773,
        "meta_inclination": 73.9532,
        "meta_ra_of_asc_node": 266.4953,
        "meta_arg_of_pericenter": 98.8912,
        "meta_mean_anomaly": 60.2244,
        "meta_ephemeris_type": 0,
        "meta_classification_type": "U",
        "meta_norad_cat_id": 34118,
        "meta_element_set_no": 999,
        "meta_rev_at_epoch": 89049,
        "meta_bstar": 0.0050046145,
        "meta_mean_motion_dot": 0.00054799,
        "meta_mean_motion_ddot": 0,
        "tle_line1": "1 34118U 93036KP  25338.24088612  .00054799  00000+0  50046-2 0  9990",
        "tle_line2": "2 34118  73.9532 266.4953 0059977  98.8912  60.2244 14.93384561890499"
      },
      "geometry": {
        "type": "Point",
        "coordinates": [
          113.73041645958291,
          -58.553952981523764
        ]
      }
    },
    {
      "type": "Feature",
      "properties": {
        "norad_id": 34120,
        "name": "COSMOS 2251 DEB",
        "group": "cosmos-2251-debris",
        "lat": 5.518259544802443,
        "lon": 48.628943465882365,
        "alt_km": 952.8450481197369,
        "timestamp": "2025-12-04T15:47:54.492861+00:00",
        "meta_object_name": "COSMOS 2251 DEB",
        "meta_object_id": "1993-036KR",
        "meta_epoch": "2025-12-04T03:34:11.432352",
        "meta_mean_motion": 13.98668339,
        "meta_eccentricity": 0.01815907,
        "meta_inclination": 73.9918,
        "meta_ra_of_asc_node": 231.1005,
        "meta_arg_of_pericenter": 60.7248,
        "meta_mean_anomaly": 66.9399,
        "meta_ephemeris_type": 0,
        "meta_classification_type": "U",
        "meta_norad_cat_id": 34120,
        "meta_element_set_no": 999,
        "meta_rev_at_epoch": 85860,
        "meta_bstar": 0.00063905823,
        "meta_mean_motion_dot": 1.034e-05,
        "meta_mean_motion_ddot": 0,
        "tle_line1": "1 34120U 93036KR  25338.14874343  .00001034  00000+0  63906-3 0  9990",
        "tle_line2": "2 34120  73.9918 231.1005 0181590  60.7248  66.9399 13.98668339858607"
      },
      "geometry": {
        "type": "Point",
        "coordinates": [
          48.628943465882365,
          5.518259544802443
        ]
      }
    }
  ]
}